{
  "type": "FeatureCollection",
  "features": [
    {
      "type": "Feature",
      "properties": {
        "norad_id": 35440,
        "name": "COSMOS 2251 DEB",
        "group": "cosmos-2251-debris",
        "lat": -14.305461138610385,
        "lon": -141.37513451250663,
        "alt_km": 623.7789840662817,
        "timestamp": "2025-12-04T21:36:16.268036+00:00",
        "meta_object_name": "COSMOS 2251 DEB",
        "meta_object_id": "1993-036AKJ",
        "meta_epoch": "2025-12-04T00:25:11.600832",
        "meta_mean_motion": 14.68734875,
        "meta_eccentricity": 0.0068957,
        "meta_inclination": 74.0159,
        "meta_ra_of_asc_node": 224.5259,
        "meta_arg_of_pericenter": 7.4237,
        "meta_mean_anomaly": 352.7936,
        "meta_ephemeris_type": 0,
        "meta_classification_type": "U",
        "meta_norad_cat_id": 35440,
        "meta_element_set_no": 999,
        "meta_rev_at_epoch": 68637,
        "meta_bstar": 0.0010432053,
        "meta_mean_motion_dot": 6.276e-05,
        "meta_mean_motion_ddot": 0,
        "tle_line1": "1 35440U 93036AKJ 25338.01749538  .00006276  00000+0  10432-2 0  9997",
        "tle_line2": "2 35440  74.0159 224.5259 0068957   7.4237 352.7936 14.68734875686379"
      },
      "geometry": {
        "type": "Point",
        "coordinates": [
          -141.37513451250663,
          -14.305461138610385
        ]
      }
    },
    {
      "type": "Feature",
      "properties": {
        "norad_id": 35441,
        "name": "COSMOS 2251 DEB",
        "group": "cosmos-2251-debris",
        "lat": 59.69759052769443,
        "lon": 103.91339292012468,
        "alt_km": 682.3566818280469,
        "timestamp": "2025-12-04T21:36:16.268046+00:00",
        "meta_object_name": "COSMOS 2251 DEB",
        "meta_object_id": "1993-036AKK",
        "meta_epoch": "2025-12-02T14:53:24.205920",
        "meta_mean_motion": 14.6231334,
        "meta_eccentricity": 0.00376111,
        "meta_inclination": 74.1347,
        "meta_ra_of_asc_node": 317.3711,
        "meta_arg_of_pericenter": 217.6417,
        "meta_mean_anomaly": 142.2119,
        "meta_ephemeris_type": 0,
        "meta_classification_type": "U",
        "meta_norad_cat_id": 35441,
        "meta_element_set_no": 999,
        "meta_rev_at_epoch": 87282,
        "meta_bstar": 0.002198223,
        "meta_mean_motion_dot": 0.000112,
        "meta_mean_motion_ddot": 0,
        "tle_line1": "1 35441U 93036AKK 25336.62041905  .00011200  00000+0  21982-2 0  9991",
        "tle_line2": "2 35441  74.1347 317.3711 0037611 217.6417 142.2119 14.62313340872828"
      },
      "geometry": {
        "type": "Point",
        "coordinates": [
          103.91339292012468,
          59.69759052769443
        ]
      }
    },
    {
      "type": "Feature",
      "properties": {
        "norad_id": 35442,
        "name": "COSMOS 2251 DEB",
        "group": "cosmos-2251-debris",
        "lat": 66.92211198087992,
        "lon": -107.55429524390846,
        "alt_km": 607.3054955228881,
        "timestamp": "2025-12-04T21:36:16.268056+00:00",
        "meta_object_name": "COSMOS 2251 DEB",
        "meta_object_id": "1993-036AKL",
        "meta_epoch": "2025-12-03T15:59:55.163616",
        "meta_mean_motion": 14.83772489,
        "meta_eccentricity": 0.00044741,
        "meta_inclination": 74.0258,
        "meta_ra_of_asc_node": 117.135,
        "meta_arg_of_pericenter": 128.1598,
        "meta_mean_anomaly": 231.9984,
        "meta_ephemeris_type": 0,
        "meta_classification_type": "U",
        "meta_norad_cat_id": 35442,
        "meta_element_set_no": 999,
        "meta_rev_at_epoch": 87218,
        "meta_bstar": 0.004565269,
        "meta_mean_motion_dot": 0.00037992,
        "meta_mean_motion_ddot": 0,
        "tle_line1": "1 35442U 93036AKL 25337.66661069  .00037992  00000+0  45653-2 0  9993",
        "tle_line2": "2 35442  74.0258 117.1350 0004474 128.1598 231.9984 14.83772489872182"
      },
      "geometry": {
        "type": "Point",
        "coordinates": [
          -107.55429524390846,
          66.92211198087992
        ]
      }
    },
    {
      "type": "Feature",
      "properties": {
        "norad_id": 35443,
        "name": "COSMOS 2251 DEB",
        "group": "cosmos-2251-debris",
        "lat": 18.200803274031433,
        "lon": 162.06645999500492,
        "alt_km": 535.3808311404391,
        "timestamp": "2025-12-04T21:36:16.268067+00:00",
        "meta_object_name": "COSMOS 2251 DEB",
        "meta_object_id": "1993-036AKM",
        "meta_epoch": "2025-12-03T11:10:41.919744",
        "meta_mean_motion": 14.95510344,
        "meta_eccentricity": 0.0073868,
        "meta_inclination": 73.9866,
        "meta_ra_of_asc_node": 350.3879,
        "meta_arg_of_pericenter": 135.256,
        "meta_mean_anomaly": 225.4616,
        "meta_ephemeris_type": 0,
        "meta_classification_type": "U",
        "meta_norad_cat_id": 35443,
        "meta_element_set_no": 999,
        "meta_rev_at_epoch": 86739,
        "meta_bstar": 0.0041144703,
        "meta_mean_motion_dot": 0.00048434,
        "meta_mean_motion_ddot": 0,
        "tle_line1": "1 35443U 93036AKM 25337.46576296  .00048434  00000+0  41145-2 0  9994",
        "tle_line2": "2 35443  73.9866 350.3879 0073868 135.2560 225.4616 14.95510344867394"
      },
      "geometry": {
        "type": "Point",
        "coordinates": [
          162.06645999500492,
          18.200803274031433
        ]
      }
    },
    {
      "type": "Feature",
      "properties": {
        "norad_id": 35445,
        "name": "COSMOS 2251 DEB",
        "group": "cosmos-2251-debris",
        "lat": 14.192626763509315,
        "lon": 130.79832540750118,
        "alt_km": 749.1220718316254,
        "timestamp": "2025-12-04T21:36:16.268077+00:00",
        "meta_object_name": "COSMOS 2251 DEB",
        "meta_object_id": "1993-036AKP",
        "meta_epoch": "2025-12-01T05:37:58.814400",
        "meta_mean_motion": 14.58784895,
        "meta_eccentricity": 0.0143608,
        "meta_inclination": 74.0353,
        "meta_ra_of_asc_node": 321.9314,
        "meta_arg_of_pericenter": 51.7494,
        "meta_mean_anomaly": 309.6492,
        "meta_ephemeris_type": 0,
        "meta_classification_type": "U",
        "meta_norad_cat_id": 35445,
        "meta_element_set_no": 999,
        "meta_rev_at_epoch": 87161,
        "meta_bstar": 0.0018521,
        "meta_mean_motion_dot": 9.974e-05,
        "meta_mean_motion_ddot": 0,
        "tle_line1": "1 35445U 93036AKP 25335.23470850  .00009974  00000+0  18521-2 0  9996",
        "tle_line2": "2 35445  74.0353 321.9314 0143608  51.7494 309.6492 14.58784895871615"
      },
      "geometry": {
        "type": "Point",
        "coordinates": [
          130.79832540750118,
          14.192626763509315
        ]
      }
    },
    {
      "type": "Feature",
      "properties": {
        "norad_id": 35446,
        "name": "COSMOS 2251 DEB",
        "group": "cosmos-2251-debris",
        "lat": -35.14253642375498,
        "lon": -38.60759457399154,
        "alt_km": 750.458741105932,
        "timestamp": "2025-12-04T21:36:16.268087+00:00",
        "meta_object_name": "COSMOS 2251 DEB",
        "meta_object_id": "1993-036AKQ",
        "meta_epoch": "2025-11-30T07:11:01.736160",
        "meta_mean_motion": 14.5460995,
        "meta_eccentricity": 0.00744354,
        "meta_inclination": 74.0466,
        "meta_ra_of_asc_node": 341.7043,
        "meta_arg_of_pericenter": 103.5149,
        "meta_mean_anomaly": 257.4321,
        "meta_ephemeris_type": 0,
        "meta_classification_type": "U",
        "meta_norad_cat_id": 35446,
        "meta_element_set_no": 999,
        "meta_rev_at_epoch": 87827,
        "meta_bstar": 0.00010353473,
        "meta_mean_motion_dot": 4.29e-06,
        "meta_mean_motion_ddot": 0,
        "tle_line1": "1 35446U 93036AKQ 25334.29932565  .00000429  00000+0  10353-3 0  9990",
        "tle_line2": "2 35446  74.0466 341.7043 0074435 103.5149 257.4321 14.54609950878278"
      },
      "geometry": {
        "type": "Point",
        "coordinates": [
          -38.60759457399154,
          -35.14253642375498
        ]
      }
    },
    {
      "type": "Feature",
      "properties": {
        "norad_id": 35448,
        "name": "COSMOS 2251 DEB",
        "group": "cosmos-2251-debris",
        "lat": -13.758134896766473,
        "lon": -71.4946339427112,
        "alt_km": 716.3440113047118,
        "timestamp": "2025-12-04T21:36:16.268101+00:00",
        "meta_object_name": "COSMOS 2251 DEB",
        "meta_object_id": "1993-036AKS",
        "meta_epoch": "2025-12-04T00:53:58.501824",
        "meta_mean_motion": 14.5413126,
        "meta_eccentricity": 0.00111642,
        "meta_inclination": 73.9026,
        "meta_ra_of_asc_node": 106.0942,
        "meta_arg_of_pericenter": 285.9815,
        "meta_mean_anomaly": 74.0116,
        "meta_ephemeris_type": 0,
        "meta_classification_type": "U",
        "meta_norad_cat_id": 35448,
        "meta_element_set_no": 999,
        "meta_rev_at_epoch": 87208,
        "meta_bstar": 0.0023041751,
        "meta_mean_motion_dot": 9.734e-05,
        "meta_mean_motion_ddot": 0,
        "tle_line1": "1 35448U 93036AKS 25338.03748266  .00009734  00000+0  23042-2 0  9997",
        "tle_line2": "2 35448  73.9026 106.0942 0011164 285.9815  74.0116 14.54131260872087"
      },
      "geometry": {
        "type": "Point",
        "coordinates": [
          -71.4946339427112,
          -13.758134896766473
        ]
      }
    }
  ]
}